{
    "links": {
        "self": "http://www.neowsapp.com/rest/v1/neo/3708943?api_key=iIulBulltgU6a56xZRHN4H3l9WmuAYTsLGpBGhQ2"
    },
    "id": "3708943",
    "neo_reference_id": "3708943",
    "name": "(2015 BJ510)",
    "designation": "2015 BJ510",
    "nasa_jpl_url": "http://ssd.jpl.nasa.gov/sbdb.cgi?sstr=3708943",
    "absolute_magnitude_h": 23.4,
    "estimated_diameter": {
        "kilometers": {
            "estimated_diameter_min": 0.0555334912,
            "estimated_diameter_max": 0.1241766613
        },
        "meters": {
            "estimated_diameter_min": 55.5334911581,
            "estimated_diameter_max": 124.1766612574
        },
        "miles": {
            "estimated_diameter_min": 0.0345069009,
            "estimated_diameter_max": 0.0771597762
        },
        "feet": {
            "estimated_diameter_min": 182.1964991311,
            "estimated_diameter_max": 407.4037573197
        }
    },
    "is_potentially_hazardous_asteroid": false,
    "close_approach_data": [
        {
            "close_approach_date": "2014-12-28",
            "close_approach_date_full": "2014-Dec-28 11:45",
            "epoch_date_close_approach": 1419767100000,
            "relative_velocity": {
                "kilometers_per_second": "14.3075308363",
                "kilometers_per_hour": "51507.1110108496",
                "miles_per_hour": "32004.5157278248"
            },
            "miss_distance": {
                "astronomical": "0.0914132612",
                "lunar": "35.5597586068",
                "kilometers": "13675229.165273644",
                "miles": "8497393.3739345272"
            },
            "orbiting_body": "Earth"
        }
    ],
    "orbital_data": {
        "orbit_id": "3",
        "orbit_determination_date": "2017-04-06 08:36:03",
        "first_observation_date": "2015-01-20",
        "last_observation_date": "2015-01-26",
        "data_arc_in_days": 6,
        "observations_used": 12,
        "orbit_uncertainty": "9",
        "minimum_orbit_intersection": ".0570672",
        "jupiter_tisserand_invariant": "3.751",
        "epoch_osculation": "2457044.5",
        "eccentricity": ".5629059612203897",
        "semi_major_axis": "1.878795434109048",
        "inclination": "8.860758263938035",
        "ascending_node_longitude": "310.0502486494967",
        "orbital_period": "940.6274988019518",
        "perihelion_distance": ".8212102843354148",
        "perihelion_argument": "84.33066765622631",
        "aphelion_distance": "2.93638058388268",
        "perihelion_time": "2456977.284203308939",
        "mean_anomaly": "25.72504720476682",
        "mean_motion": ".3827232357745451",
        "equinox": "J2000",
        "orbit_class": {
            "orbit_class_type": "APO",
            "orbit_class_description": "Near-Earth asteroid orbits which cross the Earth’s orbit similar to that of 1862 Apollo",
            "orbit_class_range": "a (semi-major axis) > 1.0 AU; q (perihelion) < 1.017 AU"
        }
    },
    "is_sentry_object": false
}